ORBCOMM FM33            
1 25983U 99065D   24297.77384864  .00003352  00000+0  11284-2 0  9997
2 25983  45.0295  41.9483 0009099 298.9531  61.0406 14.38666901302003
ORBCOMM FM36            
1 25984U 99065E   24297.91261745  .00002537  00000+0  90068-3 0  9998
2 25984  45.0375 129.5678 0004124 184.6254 175.4557 14.36699244300424
ORBCOMM FM35            
1 25985U 99065F   24298.01799209  .00001936  00000+0  70908-3 0  9995
2 25985  45.0378 132.4185 0002886 285.6356  74.4173 14.35970209301012
ORBCOMM FM34            
1 25986U 99065G   24297.92046644  .00001983  00000+0  72456-3 0  9995
2 25986  45.0370 133.4245 0003748 227.4042 132.6490 14.35991472300920
ORBCOMM FM38            
1 33060U 08031A   24298.18640235  .00004782  00000+0  66541-3 0  9993
2 33060  48.4418 358.3427 0004413 102.4515 257.6894 14.79173607879779
ORBCOMM FM41            
1 33061U 08031B   24297.95819330  .00004513  00000+0  63437-3 0  9995
2 33061  48.4453   6.4551 0003638  82.3472  87.7266 14.78849870879242
ORBCOMM FM29            
1 33062U 08031C   24297.51671258  .00004651  00000+0  65304-3 0  9991
2 33062  48.4404  16.5661 0005327  81.8025 291.8472 14.78837819879098
ORBCOMM FM39            
1 33063U 08031D   24297.66900641  .00004276  00000+0  61957-3 0  9992
2 33063  48.4415  37.7212 0006391  55.9587 304.1933 14.77648690878797
