<?xml version="1.0" encoding="UTF-8"?>
<ndm xmlns:xsi="http://www.w3.org/2001/XMLSchema-instance" xsi:noNamespaceSchemaLocation="https://sanaregistry.org/r/ndmxml_unqualified/ndmxml-2.0.0-master-2.0.xsd">
<omm id="CCSDS_OMM_VERS" version="2.0">
<header><CREATION_DATE/><ORIGINATOR/></header><body><segment><metadata><OBJECT_NAME>ORBCOMM FM33</OBJECT_NAME><OBJECT_ID>1999-065D</OBJECT_ID><CENTER_NAME>EARTH</CENTER_NAME><REF_FRAME>TEME</REF_FRAME><TIME_SYSTEM>UTC</TIME_SYSTEM><MEAN_ELEMENT_THEORY>SGP4</MEAN_ELEMENT_THEORY></metadata><data><meanElements><EPOCH>2024-10-23T18:34:20.522496</EPOCH><MEAN_MOTION>14.38666901</MEAN_MOTION><ECCENTRICITY>.0009099</ECCENTRICITY><INCLINATION>45.0295</INCLINATION><RA_OF_ASC_NODE>41.9483</RA_OF_ASC_NODE><ARG_OF_PERICENTER>298.9531</ARG_OF_PERICENTER><MEAN_ANOMALY>61.0406</MEAN_ANOMALY></meanElements><tleParameters><EPHEMERIS_TYPE>0</EPHEMERIS_TYPE><CLASSIFICATION_TYPE>U</CLASSIFICATION_TYPE><NORAD_CAT_ID>25983</NORAD_CAT_ID><ELEMENT_SET_NO>999</ELEMENT_SET_NO><REV_AT_EPOCH>30200</REV_AT_EPOCH><BSTAR>.11284E-2</BSTAR><MEAN_MOTION_DOT>.3352E-4</MEAN_MOTION_DOT><MEAN_MOTION_DDOT>0</MEAN_MOTION_DDOT></tleParameters></data></segment></body></omm>
<omm id="CCSDS_OMM_VERS" version="2.0">
<header><CREATION_DATE/><ORIGINATOR/></header><body><segment><metadata><OBJECT_NAME>ORBCOMM FM36</OBJECT_NAME><OBJECT_ID>1999-065E</OBJECT_ID><CENTER_NAME>EARTH</CENTER_NAME><REF_FRAME>TEME</REF_FRAME><TIME_SYSTEM>UTC</TIME_SYSTEM><MEAN_ELEMENT_THEORY>SGP4</MEAN_ELEMENT_THEORY></metadata><data><meanElements><EPOCH>2024-10-23T21:54:10.147680</EPOCH><MEAN_MOTION>14.36699244</MEAN_MOTION><ECCENTRICITY>.0004124</ECCENTRICITY><INCLINATION>45.0375</INCLINATION><RA_OF_ASC_NODE>129.5678</RA_OF_ASC_NODE><ARG_OF_PERICENTER>184.6254</ARG_OF_PERICENTER><MEAN_ANOMALY>175.4557</MEAN_ANOMALY></meanElements><tleParameters><EPHEMERIS_TYPE>0</EPHEMERIS_TYPE><CLASSIFICATION_TYPE>U</CLASSIFICATION_TYPE><NORAD_CAT_ID>25984</NORAD_CAT_ID><ELEMENT_SET_NO>999</ELEMENT_SET_NO><REV_AT_EPOCH>30042</REV_AT_EPOCH><BSTAR>.90068E-3</BSTAR><MEAN_MOTION_DOT>.2537E-4</MEAN_MOTION_DOT><MEAN_MOTION_DDOT>0</MEAN_MOTION_DDOT></tleParameters></data></segment></body></omm>
<omm id="CCSDS_OMM_VERS" version="2.0">
<header><CREATION_DATE/><ORIGINATOR/></header><body><segment><metadata><OBJECT_NAME>ORBCOMM FM35</OBJECT_NAME><OBJECT_ID>1999-065F</OBJECT_ID><CENTER_NAME>EARTH</CENTER_NAME><REF_FRAME>TEME</REF_FRAME><TIME_SYSTEM>UTC</TIME_SYSTEM><MEAN_ELEMENT_THEORY>SGP4</MEAN_ELEMENT_THEORY></metadata><data><meanElements><EPOCH>2024-10-24T00:25:54.516576</EPOCH><MEAN_MOTION>14.35970209</MEAN_MOTION><ECCENTRICITY>.0002886</ECCENTRICITY><INCLINATION>45.0378</INCLINATION><RA_OF_ASC_NODE>132.4185</RA_OF_ASC_NODE><ARG_OF_PERICENTER>285.6356</ARG_OF_PERICENTER><MEAN_ANOMALY>74.4173</MEAN_ANOMALY></meanElements><tleParameters><EPHEMERIS_TYPE>0</EPHEMERIS_TYPE><CLASSIFICATION_TYPE>U</CLASSIFICATION_TYPE><NORAD_CAT_ID>25985</NORAD_CAT_ID><ELEMENT_SET_NO>999</ELEMENT_SET_NO><REV_AT_EPOCH>30101</REV_AT_EPOCH><BSTAR>.70908E-3</BSTAR><MEAN_MOTION_DOT>.1936E-4</MEAN_MOTION_DOT><MEAN_MOTION_DDOT>0</MEAN_MOTION_DDOT></tleParameters></data></segment></body></omm>
<omm id="CCSDS_OMM_VERS" version="2.0">
<header><CREATION_DATE/><ORIGINATOR/></header><body><segment><metadata><OBJECT_NAME>ORBCOMM FM34</OBJECT_NAME><OBJECT_ID>1999-065G</OBJECT_ID><CENTER_NAME>EARTH</CENTER_NAME><REF_FRAME>TEME</REF_FRAME><TIME_SYSTEM>UTC</TIME_SYSTEM><MEAN_ELEMENT_THEORY>SGP4</MEAN_ELEMENT_THEORY></metadata><data><meanElements><EPOCH>2024-10-23T22:05:28.300416</EPOCH><MEAN_MOTION>14.35991472</MEAN_MOTION><ECCENTRICITY>.0003748</ECCENTRICITY><INCLINATION>45.0370</INCLINATION><RA_OF_ASC_NODE>133.4245</RA_OF_ASC_NODE><ARG_OF_PERICENTER>227.4042</ARG_OF_PERICENTER><MEAN_ANOMALY>132.6490</MEAN_ANOMALY></meanElements><tleParameters><EPHEMERIS_TYPE>0</EPHEMERIS_TYPE><CLASSIFICATION_TYPE>U</CLASSIFICATION_TYPE><NORAD_CAT_ID>25986</NORAD_CAT_ID><ELEMENT_SET_NO>999</ELEMENT_SET_NO><REV_AT_EPOCH>30092</REV_AT_EPOCH><BSTAR>.72456E-3</BSTAR><MEAN_MOTION_DOT>.1983E-4</MEAN_MOTION_DOT><MEAN_MOTION_DDOT>0</MEAN_MOTION_DDOT></tleParameters></data></segment></body></omm>
<omm id="CCSDS_OMM_VERS" version="2.0">
<header><CREATION_DATE/><ORIGINATOR/></header><body><segment><metadata><OBJECT_NAME>ORBCOMM FM38</OBJECT_NAME><OBJECT_ID>2008-031A</OBJECT_ID><CENTER_NAME>EARTH</CENTER_NAME><REF_FRAME>TEME</REF_FRAME><TIME_SYSTEM>UTC</TIME_SYSTEM><MEAN_ELEMENT_THEORY>SGP4</MEAN_ELEMENT_THEORY></metadata><data><meanElements><EPOCH>2024-10-24T04:28:25.163040</EPOCH><MEAN_MOTION>14.79173607</MEAN_MOTION><ECCENTRICITY>.0004413</ECCENTRICITY><INCLINATION>48.4418</INCLINATION><RA_OF_ASC_NODE>358.3427</RA_OF_ASC_NODE><ARG_OF_PERICENTER>102.4515</ARG_OF_PERICENTER><MEAN_ANOMALY>257.6894</MEAN_ANOMALY></meanElements><tleParameters><EPHEMERIS_TYPE>0</EPHEMERIS_TYPE><CLASSIFICATION_TYPE>U</CLASSIFICATION_TYPE><NORAD_CAT_ID>33060</NORAD_CAT_ID><ELEMENT_SET_NO>999</ELEMENT_SET_NO><REV_AT_EPOCH>87977</REV_AT_EPOCH><BSTAR>.66541E-3</BSTAR><MEAN_MOTION_DOT>.4782E-4</MEAN_MOTION_DOT><MEAN_MOTION_DDOT>0</MEAN_MOTION_DDOT></tleParameters></data></segment></body></omm>
<omm id="CCSDS_OMM_VERS" version="2.0">
<header><CREATION_DATE/><ORIGINATOR/></header><body><segment><metadata><OBJECT_NAME>ORBCOMM FM41</OBJECT_NAME><OBJECT_ID>2008-031B</OBJECT_ID><CENTER_NAME>EARTH</CENTER_NAME><REF_FRAME>TEME</REF_FRAME><TIME_SYSTEM>UTC</TIME_SYSTEM><MEAN_ELEMENT_THEORY>SGP4</MEAN_ELEMENT_THEORY></metadata><data><meanElements><EPOCH>2024-10-23T22:59:47.901120</EPOCH><MEAN_MOTION>14.78849870</MEAN_MOTION><ECCENTRICITY>.0003638</ECCENTRICITY><INCLINATION>48.4453</INCLINATION><RA_OF_ASC_NODE>6.4551</RA_OF_ASC_NODE><ARG_OF_PERICENTER>82.3472</ARG_OF_PERICENTER><MEAN_ANOMALY>87.7266</MEAN_ANOMALY></meanElements><tleParameters><EPHEMERIS_TYPE>0</EPHEMERIS_TYPE><CLASSIFICATION_TYPE>U</CLASSIFICATION_TYPE><NORAD_CAT_ID>33061</NORAD_CAT_ID><ELEMENT_SET_NO>999</ELEMENT_SET_NO><REV_AT_EPOCH>87924</REV_AT_EPOCH><BSTAR>.63437E-3</BSTAR><MEAN_MOTION_DOT>.4513E-4</MEAN_MOTION_DOT><MEAN_MOTION_DDOT>0</MEAN_MOTION_DDOT></tleParameters></data></segment></body></omm>
<omm id="CCSDS_OMM_VERS" version="2.0">
<header><CREATION_DATE/><ORIGINATOR/></header><body><segment><metadata><OBJECT_NAME>ORBCOMM FM29</OBJECT_NAME><OBJECT_ID>2008-031C</OBJECT_ID><CENTER_NAME>EARTH</CENTER_NAME><REF_FRAME>TEME</REF_FRAME><TIME_SYSTEM>UTC</TIME_SYSTEM><MEAN_ELEMENT_THEORY>SGP4</MEAN_ELEMENT_THEORY></metadata><data><meanElements><EPOCH>2024-10-23T12:24:03.966912</EPOCH><MEAN_MOTION>14.78837819</MEAN_MOTION><ECCENTRICITY>.0005327</ECCENTRICITY><INCLINATION>48.4404</INCLINATION><RA_OF_ASC_NODE>16.5661</RA_OF_ASC_NODE><ARG_OF_PERICENTER>81.8025</ARG_OF_PERICENTER><MEAN_ANOMALY>291.8472</MEAN_ANOMALY></meanElements><tleParameters><EPHEMERIS_TYPE>0</EPHEMERIS_TYPE><CLASSIFICATION_TYPE>U</CLASSIFICATION_TYPE><NORAD_CAT_ID>33062</NORAD_CAT_ID><ELEMENT_SET_NO>999</ELEMENT_SET_NO><REV_AT_EPOCH>87909</REV_AT_EPOCH><BSTAR>.65304E-3</BSTAR><MEAN_MOTION_DOT>.4651E-4</MEAN_MOTION_DOT><MEAN_MOTION_DDOT>0</MEAN_MOTION_DDOT></tleParameters></data></segment></body></omm>
<omm id="CCSDS_OMM_VERS" version="2.0">
<header><CREATION_DATE/><ORIGINATOR/></header><body><segment><metadata><OBJECT_NAME>ORBCOMM FM39</OBJECT_NAME><OBJECT_ID>2008-031D</OBJECT_ID><CENTER_NAME>EARTH</CENTER_NAME><REF_FRAME>TEME</REF_FRAME><TIME_SYSTEM>UTC</TIME_SYSTEM><MEAN_ELEMENT_THEORY>SGP4</MEAN_ELEMENT_THEORY></metadata><data><meanElements><EPOCH>2024-10-23T16:03:22.153824</EPOCH><MEAN_MOTION>14.77648690</MEAN_MOTION><ECCENTRICITY>.0006391</ECCENTRICITY><INCLINATION>48.4415</INCLINATION><RA_OF_ASC_NODE>37.7212</RA_OF_ASC_NODE><ARG_OF_PERICENTER>55.9587</ARG_OF_PERICENTER><MEAN_ANOMALY>304.1933</MEAN_ANOMALY></meanElements><tleParameters><EPHEMERIS_TYPE>0</EPHEMERIS_TYPE><CLASSIFICATION_TYPE>U</CLASSIFICATION_TYPE><NORAD_CAT_ID>33063</NORAD_CAT_ID><ELEMENT_SET_NO>999</ELEMENT_SET_NO><REV_AT_EPOCH>87879</REV_AT_EPOCH><BSTAR>.61957E-3</BSTAR><MEAN_MOTION_DOT>.4276E-4</MEAN_MOTION_DOT><MEAN_MOTION_DDOT>0</MEAN_MOTION_DDOT></tleParameters></data></segment></body></omm>

</ndm>
